BEIDOU-3 G1             
1 43683U 18085A   21320.17649103 -.00000272  00000+0  00000+0 0  9995
2 43683   0.8739 205.0385 0004974  36.3187  17.6381  1.00275656 11266
GSAT-29                 
1 43698U 18089A   21319.86901531  .00000088  00000+0  00000+0 0  9999
2 43698   0.0223  92.1231 0003888 143.1547 187.7874  1.00271269 10998
ES'HAIL 2               
1 43700U 18090A   21319.86660459  .00000147  00000+0  00000+0 0  9992
2 43700   0.0153 277.2264 0002359 336.4436 139.2907  1.00272202 10887
GEO-KOMPSAT-2A          
1 43823U 18100A   21319.88701368 -.00000341  00000+0  00000+0 0  9994
2 43823   0.0117 267.5610 0002570 347.3048 247.9076  1.00268224 10833
GSAT-11                 
1 43824U 18100B   21320.09154046 -.00000073  00000+0  00000+0 0  9997
2 43824   0.0132 276.1376 0004192 212.6802  33.5141  1.00272811 10840
GSAT-7A                 
1 43864U 18105A   21319.92709229  .00000029  00000+0  00000+0 0  9995
2 43864   0.0296 272.7930 0003190 312.1094 226.8897  1.00270963 10682
COSMOS 2533             
1 43867U 18107A   21320.16253611 -.00000036  00000+0  00000+0 0  9996
2 43867   0.0091 208.5088 0000447 137.4900 197.9817  1.00277171 10649
TJS-3                   
1 43874U 18110A   21319.94731171  .00000059  00000+0  00000+0 0  9998
2 43874   0.0790  86.6317 0000886 159.0992 209.5445  1.00275595 10635
TJS-3 AKM               
1 43917U 18110C   21319.92846378  .00000059  00000+0  00000+0 0  9990
2 43917   0.0806 106.4603 0006786 100.7427 241.4499  1.00271439 10571
CHINASAT 2D (ZX 2D)     
1 43920U 19001A   21319.95914317 -.00000334  00000+0  00000+0 0  9993
2 43920   0.0276  30.3760 0001573 321.9966 178.1831  1.00269319 10568
HELLAS-SAT 4 & SGS-1    
1 44034U 19007A   21320.08456300  .00000156  00000+0  00000+0 0  9996
2 44034   0.0668 119.0474 0005190  54.1741 311.6100  1.00272601 10563
GSAT-31                 
1 44035U 19007B   21319.87105274  .00000128  00000+0  00000+0 0  9992
2 44035   0.0459 273.8242 0005454 326.3282 176.4952  1.00270423 10181
NUSANTARA SATU          
1 44048U 19009A   21319.89058963 -.00000231  00000+0  00000+0 0  9998
2 44048   0.0115 315.1289 0001992 276.2057 290.4882  1.00270838  9975
CHINASAT 6C (ZX 6C)     
1 44067U 19012A   21319.68243911 -.00000334  00000+0  00000+0 0  9993
2 44067   0.0367 266.1039 0003472  10.0810 154.5069  1.00273474  9942
WGS 10 (USA 291)        
1 44071U 19014A   21320.12398789  .00000051  00000+0  00000+0 0  9990
2 44071   0.0055 324.4027 0001812 345.2423 210.7180  1.00269175  9824
TIANLIAN 2-01           
1 44076U 19017A   21319.93035708 -.00000134  00000+0  00000+0 0  9997
2 44076   0.7594 282.2747 0032564 229.6319 318.3279  1.00271820  9825
ARABSAT-6A              
1 44186U 19021A   21320.15459925  .00000158  00000+0  00000+0 0  9996
2 44186   0.0498 323.5969 0007055 291.4122 246.6211  1.00270967  9374
BEIDOU-3 IGSO-1         
1 44204U 19023A   21319.66992742 -.00000240  00000+0  00000+0 0  9995
2 44204  56.2430  55.2806 0023253 188.4668 171.5844  1.00275567  9572
BEIDOU-2 G8             
1 44231U 19027A   21318.52827311 -.00000251  00000+0  00000+0 0  9994
2 44231   0.3869  52.8931 0007217 155.5204 180.0106  1.00265912  9279
YAMAL 601               
1 44307U 19031A   21319.02676843  .00000119  00000+0  00000+0 0  9993
2 44307   0.0005 304.3781 0002109 278.1372 250.4757  1.00273057  9131
AT&T T-16               
1 44333U 19034A   21320.05665316 -.00000111  00000+0  00000+0 0  9996
2 44333   0.0212 291.6043 0000183 295.6225 107.6537  1.00267427  8840
EUTELSAT 7C             
1 44334U 19034B   21320.07819606  .00000053  00000+0  00000+0 0  9996
2 44334   0.0353 260.1119 0003348 315.6472 234.7902  1.00273413  9341
BEIDOU-3 IGSO-2         
1 44337U 19035A   21320.20762493 -.00000057  00000+0  00000+0 0  9991
2 44337  55.0978 173.6336 0020471 178.1072 257.7910  1.00265932  8913
COSMOS 2539             
1 44457U 19048A   21319.57677832  .00000083  00000+0  00000+0 0  9996
2 44457   0.0523  91.9191 0000715 287.9909 254.6212  1.00272380  8433
EDRS-C                  
1 44475U 19049A   21319.76040349  .00000157  00000+0  00000+0 0  9997
2 44475   0.0487 270.7417 0000777 322.4363 126.8385  1.00273694  8404
INTELSAT 39 (IS-39)     
1 44476U 19049B   21320.12051628  .00000037  00000+0  00000+0 0  9999
2 44476   0.0136 284.4412 0000411 221.4432  14.8839  1.00272278  8365
AMOS-17                 
1 44479U 19050A   21320.15198271  .00000114  00000+0  00000+0 0  9999
2 44479   0.0436  86.5396 0002170 148.0226 252.6025  1.00272674  8394
AEHF-5 (USA 292)        
1 44481U 19051A   21320.12398789  .00000081  00000+0  00000+0 0  9999
2 44481   4.8613 305.2631 0003849 270.8443 298.4645  1.00270540  8473
EUTELSAT 5 WEST B       
1 44624U 19067A   21319.78871870 -.00000039  00000+0  00000+0 0  9996
2 44624   0.0723  27.3627 0004292 125.4020 181.2807  1.00271301  7652
MEV-1                   
1 44625U 19067B   21319.42536741 -.00000201  00000+0  00000+0 0  9994
2 44625   0.0164  54.9309 0000953 175.4923 309.9363  1.00266354 74799
TJS-4                   
1 44637U 19070A   21320.09345927 -.00000166  00000+0  00000+0 0  9990
2 44637   0.0286 359.9208 0000252 240.0463 292.6240  1.00271792  7760
BEIDOU-3 IGSO-3         
1 44709U 19073A   21319.97602573 -.00000194  00000+0  00000+0 0  9992
2 44709  57.6056 298.5937 0019471 187.2228  40.8435  1.00271519  7669
TIBA-1                  
1 44800U 19080A   21319.86852340  .00000158  00000+0  00000+0 0  9998
2 44800   0.0588 340.7955 0001945 241.7439 180.8190  1.00271932  7268
INMARSAT GX5            
1 44801U 19080B   21319.79185855  .00000077  00000+0  00000+0 0  9991
2 44801   0.0401   5.4433 0001968 225.6652 120.0479  1.00270498  7310
JCSAT-18 (KACIFIC 1)    
1 44868U 19091A   21319.96315522 -.00000198  00000+0  00000+0 0  9996
2 44868   0.0134 263.8667 0000909 325.4401 322.6999  1.00268147  7304
ELEKTRO-L 3             
1 44903U 19095A   21319.87663470 -.00000093  00000+0  00000+0 0  9992
2 44903   0.0491 223.9951 0001722  31.1854 191.5700  1.00268824  6922
SHIJIAN-20 (SJ-20)      
1 44910U 19097A   21319.94913010 -.00000204  00000+0  00000+0 0  9992
2 44910   0.6341  93.4029 0001560 154.6550 236.5394  1.00269720  6914
TJS-5                   
1 44978U 20002A   21319.88291442 -.00000340  00000+0  00000+0 0  9996
2 44978   0.1715 287.7203 0005239 242.2593 310.5871  1.00273069  6912
GSAT-30                 
1 45026U 20005A   21320.09337205 -.00000161  00000+0  00000+0 0  9998
2 45026   0.0202 265.7367 0002597 232.4737  33.8569  1.00271437  6746
EUTELSAT KONNECT        
1 45027U 20005B   21319.79116081  .00000053  00000+0  00000+0 0  9990
2 45027   0.0531 100.0022 0000487  93.0424 154.1098  1.00274370  7543
JCSAT-17                
1 45245U 20013A   21319.42684633 -.00000325  00000+0  00000+0 0  9997
2 45245   6.3662 344.5840 0002837 249.6516 110.1881  1.00272821  6443
GEO-KOMPSAT-2B          
1 45246U 20013B   21319.88701368 -.00000341  00000+0  00000+0 0  9991
2 45246   0.0502  94.2904 0000779  55.4154 353.0979  1.00271156  6482
BEIDOU-3 G2             
1 45344U 20017A   21319.87741966 -.00000142  00000+0  00000+0 0  9990
2 45344   2.2527 342.3668 0002138 196.3763 272.3454  1.00271015  6472
AEHF-6 (USA 298)        
1 45465U 20022B   21319.88884528 -.00000305  00000+0  00000+0 0  9994
2 45465   6.4400 304.6766 0050187 350.7631 217.4946  1.00270273  6223
BEIDOU-3 G3             
1 45807U 20040A   21320.02699897 -.00000352  00000+0  00000+0 0  9997
2 45807   1.9342 299.5660 0009882 341.5091 254.5112  1.00273705  5293
APSTAR 6D               
1 45863U 20045A   21319.95992814 -.00000314  00000+0  00000+0 0  9997
2 45863   0.0529  98.0226 0001749 104.4938 332.3633  1.00271440  5064
KOREASAT 116            
1 45920U 20048A   21320.02822003 -.00000358  00000+0  00000+0 0  9994
2 45920   0.0261 286.8628 0000936 279.2758 335.5877  1.00268464  4866
EXPRESS 103             
1 45985U 20053A   21318.57078855 -.00000282  00000+0  00000+0 0  9992
2 45985   0.0065  90.1257 0000539 178.2082  87.5334  1.00269474  4831
EXPRESS 80              
1 45986U 20053B   21319.37504247 -.00000135  00000+0  00000+0 0  9998
2 45986   0.0026 318.8539 0000756  34.4371 276.4084  1.00270516  4848
BSAT-4B                 
1 46112U 20056A   21319.54406988 -.00000348  00000+0  00000+0 0  9991
2 46112   0.1012 107.2193 0002652  75.6588 177.6784  1.00270011  4597
MEV-2                   
1 46113U 20056B   21318.86646494 -.00000012  00000+0  00000+0 0  9992
2 46113   0.0220  74.9449 0001235 160.6165 129.5336  1.00270455 63747
GALAXY 30 (G-30)        
1 46114U 20056C   21319.62125963  .00000039  00000+0  00000+0 0  9999
2 46114   0.0165 282.8709 0002213 305.0069 285.6894  1.00270763  4504
GAOFEN 13               
1 46610U 20071A   21319.85378267 -.00000360  00000+0  00000+0 0  9997
2 46610   1.0289 275.5855 0002727 263.6530 301.1151  1.00269539  4123
TIANTONG-1 2            
1 46916U 20082A   21319.88640316 -.00000359  00000+0  00000+0 0  9996
2 46916   4.6409 297.1332 0001955 321.7957 240.2715  1.00269270  3867
LUCAS (JDRS-1)          
1 47202U 20089A   21320.02307414 -.00000232  00000+0  00000+0 0  9999
2 47202   0.0421  99.5206 0002485 143.1696 271.6988  1.00274544  3612
SXM-7                   
1 47240U 20096A   21319.62317844 -.00000020  00000+0  00000+0 0  9996
2 47240   0.0167 290.1527 0000752 100.0484 133.7624  1.00270705  3539
CMS-01                  
1 47256U 20099A   21319.93493303 -.00000162  00000+0  00000+0 0  9992
2 47256   0.0096 260.3059 0008011 357.5225 217.0200  1.00269614  3414
TURKSAT 5A              
1 47306U 21001A   21319.58052870  .00000156  00000+0  00000+0 0  9995
2 47306   0.0023  58.8477 0000306 244.6938 351.2610  1.00272084  3196
TIANTONG-1 3            
1 47321U 21003A   21320.09302317 -.00000158  00000+0  00000+0 0  9999
2 47321   4.8971 308.7276 0003753 290.6047 291.0834  1.00272291  3180
